NORAD_CAT_ID,OBJECT_NAME,OBJECT_TYPE,EPOCH,MEAN_MOTION,ECCENTRICITY,INCLINATION,RA_OF_ASC_NODE,ARG_OF_PERICENTER,MEAN_ANOMALY,BSTAR,MEAN_MOTION_DOT,MEAN_MOTION_DDOT,TLE_LINE0,TLE_LINE1,TLE_LINE2,SEMIMAJOR_AXIS,PERIOD,APOGEE,PERIGEE,DECAYED
49135.0,STARLINK-3073,PAYLOAD,2021-11-12 20:00:01,15.69713356,0.0003856,69.9987,319.0574,290.7794,56.8384,0.00070148,0.00084255,0.0,0 STARLINK-3073,1 49135U 21082F   21316.83334491  .00084255  00000-0  70148-3 0  9990,2 49135  69.9987 319.0574 0003856 290.7794  56.8384 15.69713356  3734,6737.854,91.736,362.317,357.121,0.0
49135.0,STARLINK-3073,PAYLOAD,2021-11-13 14:00:01,15.69749892,0.0003844,69.9998,316.9464,288.2292,336.2293,-4.4723e-05,-5.548e-05,0.0,0 STARLINK-3073,1 49135U 21082F   21317.58334491 -.00005548  00000-0 -44723-4 0  9994,2 49135  69.9998 316.9464 0003844 288.2292 336.2293 15.69749892  9590,6737.75,91.734,362.205,357.025,0.0
49135.0,STARLINK-3073,PAYLOAD,2021-11-13 22:00:00,15.69705334,0.0003687,69.9982,316.0122,289.6391,58.1213,0.00064883,0.00077827,0.0,0 STARLINK-3073,1 49135U 21082F   21317.91667824  .00077827  00000-0  64883-3 0  9995,2 49135  69.9982 316.0122 0003687 289.6391  58.1213 15.69705334  9646,6737.877,91.737,362.226,357.2580000000001,0.0
49135.0,STARLINK-3073,PAYLOAD,2021-11-14 14:00:01,15.69785944,0.0003753,69.9979,314.138,295.6225,218.3731,-0.00030402,-0.00036406,0.0,0 STARLINK-3073,1 49135U 21082F   21318.58334491 -.00036406  00000-0 -30402-3 0  9990,2 49135  69.9979 314.1380 0003753 295.6225 218.3731 15.69785944  9745,6737.646,91.732,362.04,356.983,0.0
49135.0,STARLINK-3073,PAYLOAD,2021-11-14 22:00:00,15.6974739,0.0003667,69.9981,313.201,289.6779,307.4737,0.00060238,0.00072318,0.0,0 STARLINK-3073,1 49135U 21082F   21318.91667824  .00072318  00000-0  60238-3 0  9996,2 49135  69.9981 313.2010 0003667 289.6779 307.4737 15.69747390  3652,6737.757,91.735,362.092,357.151,0.0
49135.0,STARLINK-3073,PAYLOAD,2021-11-15 06:00:00,15.69810287,0.0003944,69.9984,312.264,292.5521,27.7577,-0.00090707,-0.00107408,0.0,0 STARLINK-3073,1 49135U 21082F   21319.25001157 -.00107408  00000-0 -90707-3 0  9990,2 49135  69.9984 312.2640 0003944 292.5521  27.7577 15.69810287  9857,6737.5769999999975,91.731,362.099,356.784,0.0
49135.0,STARLINK-3073,PAYLOAD,2021-11-15 14:00:01,15.69753293,0.0004104,69.9978,311.3268,292.5507,110.91,-0.00031886,-0.00038117,0.0,0 STARLINK-3073,1 49135U 21082F   21319.58334491 -.00038117  00000-0 -31886-3 0  9999,2 49135  69.9978 311.3268 0004104 292.5507 110.9100 15.69753293  3684,6737.74,91.734,362.37,356.84,0.0
49135.0,STARLINK-3073,PAYLOAD,2021-11-15 22:00:00,15.6972572,0.0003961,69.9979,310.3898,286.9822,199.6013,0.00055054,0.00065971,0.0,0 STARLINK-3073,1 49135U 21082F   21319.91667824  .00065971  00000-0  55054-3 0  9994,2 49135  69.9979 310.3898 0003961 286.9822 199.6013 15.69725720  9957,6737.819,91.736,362.353,357.015,0.0
49135.0,STARLINK-3073,PAYLOAD,2021-11-16 14:00:01,15.69792448,0.000388,69.9975,308.5153,292.9564,359.8962,-0.00092928,-0.00109917,0.0,0 STARLINK-3073,1 49135U 21082F   21320.58334491 -.00109917  00000-0 -92928-3 0  9992,2 49135  69.9975 308.5153 0003880 292.9564 359.8962 15.69792448 10064,6737.628000000002,91.732,362.107,356.879,0.0
49135.0,STARLINK-3073,PAYLOAD,2021-11-16 22:00:00,15.69707613,0.0003691,69.9979,307.5783,288.4234,87.556,0.0005586,0.00066893,0.0,0 STARLINK-3073,1 49135U 21082F   21320.91667824  .00066893  00000-0  55860-3 0  9995,2 49135  69.9979 307.5783 0003691 288.4234  87.5560 15.69707613 10115,6737.871,91.737,362.223,357.249,0.0
49135.0,STARLINK-3073,PAYLOAD,2021-11-17 10:00:00,15.69759852,0.0004024,69.998,306.1725,293.1685,27.4872,-8.873e-05,-0.00010797,0.0,0 STARLINK-3073,1 49135U 21082F   21321.41667824 -.00010797  00000-0 -88730-4 0  9998,2 49135  69.9980 306.1725 0004024 293.1685  27.4872 15.69759852 10191,6737.721,91.734,362.297,356.875,0.0
49135.0,STARLINK-3073,PAYLOAD,2021-11-17 22:00:01,15.69705393,0.0003971,69.9979,304.7669,285.6798,339.7312,0.00052632,0.00062984,0.0,0 STARLINK-3073,1 49135U 21082F   21321.91668981  .00062984  00000-0  52632-3 0  9992,2 49135  69.9979 304.7669 0003971 285.6798 339.7312 15.69705393  3675,6737.877,91.737,362.418,357.066,0.0
49135.0,STARLINK-3073,PAYLOAD,2021-11-18 00:00:00,15.69736137,0.0004001,69.998,304.5327,286.3721,89.7301,-3.0445e-05,-3.844e-05,0.0,0 STARLINK-3073,1 49135U 21082F   21322.00001157 -.00003844  00000-0 -30445-4 0  9990,2 49135  69.9980 304.5327 0004001 286.3721  89.7301 15.69736137 10280,6737.7890000000025,91.735,362.35,356.958,0.0
49135.0,STARLINK-3073,PAYLOAD,2021-11-18 10:38:16,15.6973677,0.0004172,69.9976,303.286,283.8889,76.1843,1.0734e-05,1.068e-05,0.0,0 STARLINK-3073,1 49135U 21082F   21322.44324378  .00001068  00000-0  10734-4 0  9994,2 49135  69.9976 303.2860 0004172 283.8889  76.1843 15.69736770 10362,6737.7869999999975,91.735,362.463,356.841,0.0
49135.0,STARLINK-3073,PAYLOAD,2021-11-18 22:00:00,15.69742409,0.0003933,69.998,301.9555,285.275,229.3849,0.00041815,0.00049994,0.0,0 STARLINK-3073,1 49135U 21082F   21322.91667824  .00049994  00000-0  41815-3 0  9995,2 49135  69.9980 301.9555 0003933 285.2750 229.3849 15.69742409 10421,6737.771,91.735,362.286,356.986,0.0
49135.0,STARLINK-3073,PAYLOAD,2021-11-19 14:00:01,15.69756961,0.0003764,69.9979,300.081,290.2955,30.6575,-0.00049066,-0.00058404,0.0,0 STARLINK-3073,1 49135U 21082F   21323.58334491 -.00058404  00000-0 -49066-3 0  9994,2 49135  69.9979 300.0810 0003764 290.2955  30.6575 15.69756961 10537,6737.729,91.734,362.13,357.05800000000005,0.0
49135.0,STARLINK-3073,PAYLOAD,2021-11-19 22:00:00,15.69735196,0.0003992,70.0,299.1448,290.3025,113.5545,0.00019038,0.00022565,0.0,0 STARLINK-3073,1 49135U 21082F   21323.91667824  .00022565  00000-0  19038-3 0  9993,2 49135  70.0000 299.1448 0003992 290.3025 113.5545 15.69735196  3696,6737.792,91.735,362.346,356.967,0.0
49135.0,STARLINK-3073,PAYLOAD,2021-11-20 08:00:01,15.69724242,0.0003841,69.9981,297.9727,291.9896,305.9496,0.0004668,0.00055831,0.0,0 STARLINK-3073,1 49135U 21082F   21324.33334491  .00055831  00000-0  46680-3 0  9996,2 49135  69.9981 297.9727 0003841 291.9896 305.9496 15.69724242 10659,6737.823,91.736,362.276,357.1,0.0
49135.0,STARLINK-3073,PAYLOAD,2021-11-20 14:00:01,15.69777242,0.0003783,69.9979,297.2698,289.943,280.3285,-0.00037466,-0.00044756,0.0,0 STARLINK-3073,1 49135U 21082F   21324.58334491 -.00044756  00000-0 -37466-3 0  9991,2 49135  69.9979 297.2698 0003783 289.9430 280.3285 15.69777242  3687,6737.670999999999,91.733,362.085,356.987,0.0
49135.0,STARLINK-3073,PAYLOAD,2021-11-20 22:00:00,15.69781368,0.0003787,69.9984,296.3327,284.2864,9.1283,7.2147e-05,8.421e-05,0.0,0 STARLINK-3073,1 49135U 21082F   21324.91667824  .00008421  00000-0  72147-4 0  9990,2 49135  69.9984 296.3327 0003787 284.2864   9.1283 15.69781368 10749,6737.66,91.733,362.076,356.973,0.0
49135.0,STARLINK-3073,PAYLOAD,2021-11-21 06:00:00,15.69747434,0.0003982,69.9986,295.3954,288.7666,87.8238,-0.00019078,-0.00022926,0.0,0 STARLINK-3073,1 49135U 21082F   21325.25001157 -.00022926  00000-0 -19078-3 0  9990,2 49135  69.9986 295.3954 0003982 288.7666  87.8238 15.69747434 10796,6737.757,91.735,362.305,356.939,0.0
49135.0,STARLINK-3073,PAYLOAD,2021-11-21 14:00:01,15.69763523,0.000396,69.9984,294.4583,287.2737,172.442,-0.00023235,-0.00027878,0.0,0 STARLINK-3073,1 49135U 21082F   21325.58334491 -.00027878  00000-0 -23235-3 0  9997,2 49135  69.9984 294.4583 0003960 287.2737 172.4420 15.69763523 10848,6737.7109999999975,91.734,362.244,356.907,0.0
49135.0,STARLINK-3073,PAYLOAD,2021-11-21 22:00:00,15.69759699,0.0003837,69.9987,293.5216,283.0112,259.8239,0.00026401,0.00031439,0.0,0 STARLINK-3073,1 49135U 21082F   21325.91667824  .00031439  00000-0  26401-3 0  9997,2 49135  69.9987 293.5216 0003837 283.0112 259.8239 15.69759699  3690,6737.722,91.734,362.172,357.001,0.0
49135.0,STARLINK-3073,PAYLOAD,2021-11-22 06:00:00,15.69770081,0.0003864,69.9984,292.5845,289.4194,336.5765,-0.00044204,-0.00052703,0.0,0 STARLINK-3073,1 49135U 21082F   21326.25001157 -.00052703  00000-0 -44204-3 0  9996,2 49135  69.9984 292.5845 0003864 289.4194 336.5765 15.69770081 10956,6737.691999999999,91.733,362.16,356.95300000000015,0.0
49135.0,STARLINK-3073,PAYLOAD,2021-11-22 12:00:00,15.69749664,0.0003766,69.9981,291.8815,289.2483,309.1009,-0.00026711,-0.00031981,0.0,0 STARLINK-3073,1 49135U 21082F   21326.50001157 -.00031981  00000-0 -26711-3 0  9992,2 49135  69.9981 291.8815 0003766 289.2483 309.1009 15.69749664  3673,6737.75,91.734,362.153,357.07800000000015,0.0
49135.0,STARLINK-3073,PAYLOAD,2021-11-22 22:00:00,15.69748582,0.000362,69.9986,290.7102,283.6126,148.6157,0.00016753,0.00019834,0.0,0 STARLINK-3073,1 49135U 21082F   21326.91667824  .00019834  00000-0  16753-3 0  9992,2 49135  69.9986 290.7102 0003620 283.6126 148.6157 15.69748582 11055,6737.753000000002,91.734,362.057,357.17900000000014,0.0
49135.0,STARLINK-3073,PAYLOAD,2021-11-23 06:00:00,15.69740184,0.0003631,69.9988,289.7731,290.1537,225.2121,-0.00039155,-0.0004668,0.0,0 STARLINK-3073,1 49135U 21082F   21327.25001157 -.00046680  00000-0 -39155-3 0  9993,2 49135  69.9988 289.7731 0003631 290.1537 225.2121 15.69740184 11103,6737.776999999999,91.735,362.089,357.196,0.0
49135.0,STARLINK-3073,PAYLOAD,2021-11-23 14:00:01,15.6972532,0.0003379,69.9985,288.8362,288.5546,309.9149,-0.00024148,-0.00028912,0.0,0 STARLINK-3073,1 49135U 21082F   21327.58334491 -.00028912  00000-0 -24148-3 0  9993,2 49135  69.9985 288.8362 0003379 288.5546 309.9149 15.69725320  3678,6737.82,91.736,361.962,357.408,0.0
49135.0,STARLINK-3073,PAYLOAD,2021-11-23 22:00:00,15.697342,0.0003354,69.9989,287.8996,284.2323,37.3123,0.00011616,0.00013668,0.0,0 STARLINK-3073,1 49135U 21082F   21327.91667824  .00013668  00000-0  11616-3 0  9995,2 49135  69.9989 287.8996 0003354 284.2323  37.3123 15.69734200  3696,6737.795,91.735,361.919,357.4,0.0
